[{"OBJECT_NAME":"JILIN-1 GAOFEN 03D48","OBJECT_ID":"2022-167P","EPOCH":"2026-03-09T23:48:37.804608","MEAN_MOTION":15.32947339,"ECCENTRICITY":0.00075954,"INCLINATION":97.6781,"RA_OF_ASC_NODE":234.4968,"ARG_OF_PERICENTER":111.3084,"MEAN_ANOMALY":248.8969,"EPHEMERIS_TYPE":0,"CLASSIFICATION_TYPE":"U","NORAD_CAT_ID":54695,"ELEMENT_SET_NO":999,"REV_AT_EPOCH":18018,"BSTAR":0.00049677114,"MEAN_MOTION_DOT":0.00015755,"MEAN_MOTION_DDOT":0},{"OBJECT_NAME":"STARLINK-33890","OBJECT_ID":"2025-189K","EPOCH":"2026-03-09T15:50:29.885568","MEAN_MOTION":15.30196266,"ECCENTRICITY":9.75e-5,"INCLINATION":53.1579,"RA_OF_ASC_NODE":206.7731,"ARG_OF_PERICENTER":72.2628,"MEAN_ANOMALY":287.8479,"EPHEMERIS_TYPE":0,"CLASSIFICATION_TYPE":"U","NORAD_CAT_ID":65332,"ELEMENT_SET_NO":999,"REV_AT_EPOCH":2990,"BSTAR":0.00080008462,"MEAN_MOTION_DOT":0.00023409,"MEAN_MOTION_DDOT":0}]
